start=new Date('2022-02-10T00:00:00.000Z').valueOf();
sats=[{"MEAN_MOTION_DDOT":"0.0000000000000","TLE_LINE2":"2 46161  53.0528 141.5064 0001122  87.9251 272.1866 15.06402709 83155","EPHEMERIS_TYPE":"0","PERIOD":"95.592","MEAN_ELEMENT_THEORY":"SGP4","PERIAPSIS":"546.428","MEAN_MOTION_DOT":"0.00003745","LAUNCH_DATE":"2020-08-18","FILE":"3295989","NORAD_CAT_ID":"46161","SEMIMAJOR_AXIS":"6925.340","RA_OF_ASC_NODE":"141.5064","APOAPSIS":"547.982","MEAN_MOTION":"15.06402709","DECAY_DATE":null,"EPOCH":"2022-02-09T13:48:29.035584","REV_AT_EPOCH":"8315","INCLINATION":"53.0528","REF_FRAME":"TEME","OBJECT_ID":"2020-057AW","GP_ID":"195639126","ECCENTRICITY":"0.00011220","OBJECT_NAME":"STARLINK-1600","CLASSIFICATION_TYPE":"U","BSTAR":"0.00027013000000","OBJECT_TYPE":"PAYLOAD","CENTER_NAME":"EARTH","ARG_OF_PERICENTER":"87.9251","COUNTRY_CODE":"US","SITE":"AFETR","TLE_LINE1":"1 46161U 20057AW  22040.57533606  .00003745  00000-0  27013-3 0  9990","MEAN_ANOMALY":"272.1866","RCS_SIZE":"LARGE","TIME_SYSTEM":"UTC","ELEMENT_SET_NO":"999"},{"ELEMENT_SET_NO":"999","TIME_SYSTEM":"UTC","RCS_SIZE":"LARGE","MEAN_ANOMALY":"283.1506","SITE":"AFETR","TLE_LINE1":"1 46162U 20057AX  22040.71172183 -.00003072  00000-0 -18751-3 0  9990","COUNTRY_CODE":"US","ARG_OF_PERICENTER":"76.9635","CENTER_NAME":"EARTH","OBJECT_TYPE":"PAYLOAD","BSTAR":"-0.00018751000000","CLASSIFICATION_TYPE":"U","OBJECT_NAME":"STARLINK-1603","ECCENTRICITY":"0.00013610","GP_ID":"195644772","REF_FRAME":"TEME","OBJECT_ID":"2020-057AX","INCLINATION":"53.0551","REV_AT_EPOCH":"8259","EPOCH":"2022-02-09T17:04:52.766112","DECAY_DATE":null,"APOAPSIS":"548.218","MEAN_MOTION":"15.06379933","SEMIMAJOR_AXIS":"6925.410","NORAD_CAT_ID":"46162","RA_OF_ASC_NODE":"140.8934","FILE":"3296066","LAUNCH_DATE":"2020-08-18","MEAN_MOTION_DOT":"-0.00003072","PERIAPSIS":"546.333","MEAN_ELEMENT_THEORY":"SGP4","PERIOD":"95.593","EPHEMERIS_TYPE":"0","TLE_LINE2":"2 46162  53.0551 140.8934 0001361  76.9635 283.1506 15.06379933 82591","MEAN_MOTION_DDOT":"0.0000000000000"},{"CLASSIFICATION_TYPE":"U","OBJECT_NAME":"STARLINK-1610","ECCENTRICITY":"0.00015560","GP_ID":"195637624","ELEMENT_SET_NO":"999","RCS_SIZE":"LARGE","TIME_SYSTEM":"UTC","SITE":"AFETR","TLE_LINE1":"1 46163U 20057AY  22040.51083242  .00006131  00000-0  43001-3 0  9999","MEAN_ANOMALY":"289.6385","COUNTRY_CODE":"US","ARG_OF_PERICENTER":"70.4772","CENTER_NAME":"EARTH","BSTAR":"0.00043001000000","OBJECT_TYPE":"PAYLOAD","MEAN_MOTION":"15.06409386","APOAPSIS":"548.262","SEMIMAJOR_AXIS":"6925.320","NORAD_CAT_ID":"46163","RA_OF_ASC_NODE":"121.8054","LAUNCH_DATE":"2020-08-18","FILE":"3295989","PERIAPSIS":"546.107","MEAN_MOTION_DOT":"0.00006131","EPHEMERIS_TYPE":"0","PERIOD":"95.592","MEAN_ELEMENT_THEORY":"SGP4","MEAN_MOTION_DDOT":"0.0000000000000","TLE_LINE2":"2 46163  53.0522 121.8054 0001556  70.4772 289.6385 15.06409386 82175","REF_FRAME":"TEME","OBJECT_ID":"2020-057AY","REV_AT_EPOCH":"8217","INCLINATION":"53.0522","EPOCH":"2022-02-09T12:15:35.921088","DECAY_DATE":null},{"CENTER_NAME":"EARTH","OBJECT_TYPE":"PAYLOAD","BSTAR":"0.00067658000000","COUNTRY_CODE":"US","ARG_OF_PERICENTER":"83.3920","TIME_SYSTEM":"UTC","RCS_SIZE":"LARGE","MEAN_ANOMALY":"276.7215","TLE_LINE1":"1 46164U 20057AZ  22040.50715743  .00009814  00000-0  67658-3 0  9992","SITE":"AFETR","ELEMENT_SET_NO":"999","GP_ID":"195638876","CLASSIFICATION_TYPE":"U","OBJECT_NAME":"STARLINK-1612","ECCENTRICITY":"0.00012830","DECAY_DATE":null,"INCLINATION":"53.0526","REV_AT_EPOCH":"8343","EPOCH":"2022-02-09T12:10:18.401952","OBJECT_ID":"2020-057AZ","REF_FRAME":"TEME","PERIOD":"95.591","MEAN_ELEMENT_THEORY":"SGP4","EPHEMERIS_TYPE":"0","TLE_LINE2":"2 46164  53.0526 121.8187 0001283  83.3920 276.7215 15.06413543 83431","MEAN_MOTION_DDOT":"0.0000000000000","FILE":"3295989","LAUNCH_DATE":"2020-08-18","MEAN_MOTION_DOT":"0.00009814","PERIAPSIS":"546.284","SEMIMAJOR_AXIS":"6925.307","NORAD_CAT_ID":"46164","RA_OF_ASC_NODE":"121.8187","MEAN_MOTION":"15.06413543","APOAPSIS":"548.061"},{"DECAY_DATE":null,"REV_AT_EPOCH":"8229","INCLINATION":"53.0517","EPOCH":"2022-02-09T14:56:02.551200","OBJECT_ID":"2020-057BA","REF_FRAME":"TEME","EPHEMERIS_TYPE":"0","MEAN_ELEMENT_THEORY":"SGP4","PERIOD":"95.514","MEAN_MOTION_DDOT":"0.0000000000000","TLE_LINE2":"2 46165  53.0517 160.9928 0001915 133.8898 226.2250 15.07625766 82291","LAUNCH_DATE":"2020-08-18","FILE":"3296101","PERIAPSIS":"542.134","MEAN_MOTION_DOT":"0.00014921","RA_OF_ASC_NODE":"160.9928","SEMIMAJOR_AXIS":"6921.594","NORAD_CAT_ID":"46165","APOAPSIS":"544.785","MEAN_MOTION":"15.07625766","CENTER_NAME":"EARTH","BSTAR":"0.00098541000000","OBJECT_TYPE":"PAYLOAD","COUNTRY_CODE":"US","ARG_OF_PERICENTER":"133.8898","RCS_SIZE":"LARGE","TIME_SYSTEM":"UTC","TLE_LINE1":"1 46165U 20057BA  22040.62225175  .00014921  00000-0  98541-3 0  9991","SITE":"AFETR","MEAN_ANOMALY":"226.2250","ELEMENT_SET_NO":"999","GP_ID":"195645544","OBJECT_NAME":"STARLINK-1613","CLASSIFICATION_TYPE":"U","ECCENTRICITY":"0.00019150"},{"EPOCH":"2022-02-09T15:00:07.980768","INCLINATION":"53.0543","REV_AT_EPOCH":"8163","OBJECT_ID":"2020-057BB","REF_FRAME":"TEME","DECAY_DATE":null,"SEMIMAJOR_AXIS":"6925.350","NORAD_CAT_ID":"46166","RA_OF_ASC_NODE":"161.2840","MEAN_MOTION":"15.06399683","APOAPSIS":"548.330","TLE_LINE2":"2 46166  53.0543 161.2840 0001611  74.6602 285.4565 15.06399683 81634","MEAN_MOTION_DDOT":"0.0000000000000","PERIOD":"95.592","MEAN_ELEMENT_THEORY":"SGP4","EPHEMERIS_TYPE":"0","MEAN_MOTION_DOT":"0.00002412","PERIAPSIS":"546.099","FILE":"3295989","LAUNCH_DATE":"2020-08-18","MEAN_ANOMALY":"285.4565","TLE_LINE1":"1 46166U 20057BB  22040.62509237  .00002412  00000-0  18075-3 0  9992","SITE":"AFETR","TIME_SYSTEM":"UTC","RCS_SIZE":"LARGE","ELEMENT_SET_NO":"999","OBJECT_TYPE":"PAYLOAD","BSTAR":"0.00018075000000","CENTER_NAME":"EARTH","ARG_OF_PERICENTER":"74.6602","COUNTRY_CODE":"US","ECCENTRICITY":"0.00016110","CLASSIFICATION_TYPE":"U","OBJECT_NAME":"STARLINK-1615","GP_ID":"195637875"},{"OBJECT_TYPE":"PAYLOAD","BSTAR":"0.00006012500000","CENTER_NAME":"EARTH","ARG_OF_PERICENTER":"68.3197","COUNTRY_CODE":"US","MEAN_ANOMALY":"291.7929","TLE_LINE1":"1 46167U 20057BC  22040.70617921  .00000614  00000-0  60125-4 0  9998","SITE":"AFETR","TIME_SYSTEM":"UTC","RCS_SIZE":"LARGE","ELEMENT_SET_NO":"999","GP_ID":"195648838","ECCENTRICITY":"0.00012850","CLASSIFICATION_TYPE":"U","OBJECT_NAME":"STARLINK-1626","DECAY_DATE":null,"EPOCH":"2022-02-09T16:56:53.883744","INCLINATION":"53.0549","REV_AT_EPOCH":"8230","REF_FRAME":"TEME","OBJECT_ID":"2020-057BC","TLE_LINE2":"2 46167  53.0549 160.9360 0001285  68.3197 291.7929 15.06393401 82301","MEAN_MOTION_DDOT":"0.0000000000000","PERIOD":"95.593","MEAN_ELEMENT_THEORY":"SGP4","EPHEMERIS_TYPE":"0","MEAN_MOTION_DOT":"0.00000614","PERIAPSIS":"546.344","FILE":"3296279","LAUNCH_DATE":"2020-08-18","SEMIMAJOR_AXIS":"6925.369","NORAD_CAT_ID":"46167","RA_OF_ASC_NODE":"160.9360","APOAPSIS":"548.124","MEAN_MOTION":"15.06393401"},{"REF_FRAME":"TEME","OBJECT_ID":"2020-057BD","EPOCH":"2022-02-09T16:14:24.715680","REV_AT_EPOCH":"8299","INCLINATION":"53.0534","DECAY_DATE":null,"APOAPSIS":"548.200","MEAN_MOTION":"15.06390345","SEMIMAJOR_AXIS":"6925.378","NORAD_CAT_ID":"46168","RA_OF_ASC_NODE":"111.0534","PERIAPSIS":"546.286","MEAN_MOTION_DOT":"0.00004996","LAUNCH_DATE":"2020-08-18","FILE":"3296055","MEAN_MOTION_DDOT":"0.0000000000000","TLE_LINE2":"2 46168  53.0534 111.0534 0001382  69.4541 290.6596 15.06390345 82996","EPHEMERIS_TYPE":"0","MEAN_ELEMENT_THEORY":"SGP4","PERIOD":"95.593","ELEMENT_SET_NO":"999","TLE_LINE1":"1 46168U 20057BD  22040.67667495  .00004996  00000-0  35413-3 0  9994","SITE":"AFETR","MEAN_ANOMALY":"290.6596","RCS_SIZE":"LARGE","TIME_SYSTEM":"UTC","ARG_OF_PERICENTER":"69.4541","COUNTRY_CODE":"US","BSTAR":"0.00035413000000","OBJECT_TYPE":"PAYLOAD","CENTER_NAME":"EARTH","ECCENTRICITY":"0.00013820","OBJECT_NAME":"STARLINK-1627","CLASSIFICATION_TYPE":"U","GP_ID":"195644349"},{"ECCENTRICITY":"0.00014720","OBJECT_NAME":"STARLINK-1628","CLASSIFICATION_TYPE":"U","GP_ID":"195639127","MEAN_ANOMALY":"277.3400","TLE_LINE1":"1 46169U 20057BE  22040.58862865  .00000695  00000-0  66870-4 0  9997","SITE":"AFETR","TIME_SYSTEM":"UTC","RCS_SIZE":"LARGE","ELEMENT_SET_NO":"999","OBJECT_TYPE":"PAYLOAD","BSTAR":"0.00006687000000","CENTER_NAME":"EARTH","ARG_OF_PERICENTER":"82.7756","COUNTRY_CODE":"US","RA_OF_ASC_NODE":"161.4418","SEMIMAJOR_AXIS":"6927.840","NORAD_CAT_ID":"46169","APOAPSIS":"550.725","MEAN_MOTION":"15.05587493","TLE_LINE2":"2 46169  53.0007 161.4418 0001472  82.7756 277.3400 15.05587493 81590","MEAN_MOTION_DDOT":"0.0000000000000","PERIOD":"95.644","MEAN_ELEMENT_THEORY":"SGP4","EPHEMERIS_TYPE":"0","MEAN_MOTION_DOT":"0.00000695","PERIAPSIS":"548.685","FILE":"3295989","LAUNCH_DATE":"2020-08-18","EPOCH":"2022-02-09T14:07:37.515360","INCLINATION":"53.0007","REV_AT_EPOCH":"8159","REF_FRAME":"TEME","OBJECT_ID":"2020-057BE","DECAY_DATE":null},{"DECAY_DATE":null,"REF_FRAME":"TEME","OBJECT_ID":"2020-057BG","REV_AT_EPOCH":"8258","INCLINATION":"53.0529","EPOCH":"2022-02-09T17:57:57.269664","LAUNCH_DATE":"2020-08-18","FILE":"3296068","PERIAPSIS":"546.018","MEAN_MOTION_DOT":"0.00004039","EPHEMERIS_TYPE":"0","MEAN_ELEMENT_THEORY":"SGP4","PERIOD":"95.592","MEAN_MOTION_DDOT":"0.0000000000000","TLE_LINE2":"2 46171  53.0529 140.7309 0001695  67.9247 292.1922 15.06407051 82584","MEAN_MOTION":"15.06407051","APOAPSIS":"548.366","SEMIMAJOR_AXIS":"6925.327","RA_OF_ASC_NODE":"140.7309","NORAD_CAT_ID":"46171","COUNTRY_CODE":"US","ARG_OF_PERICENTER":"67.9247","CENTER_NAME":"EARTH","BSTAR":"0.00028984000000","OBJECT_TYPE":"PAYLOAD","ELEMENT_SET_NO":"999","RCS_SIZE":"LARGE","TIME_SYSTEM":"UTC","TLE_LINE1":"1 46171U 20057BG  22040.74857951  .00004039  00000-0  28984-3 0  9997","SITE":"AFETR","MEAN_ANOMALY":"292.1922","GP_ID":"195644473","OBJECT_NAME":"STARLINK-1633","CLASSIFICATION_TYPE":"U","ECCENTRICITY":"0.00016950"}];
